[{"OBJECT_NAME":"STARLINK-33926","OBJECT_ID":"2025-112B","EPOCH":"2026-03-09T17:03:00.719136","MEAN_MOTION":15.05657844,"ECCENTRICITY":9.324e-5,"INCLINATION":97.6022,"RA_OF_ASC_NODE":121.5702,"ARG_OF_PERICENTER":218.1619,"MEAN_ANOMALY":141.9542,"EPHEMERIS_TYPE":0,"CLASSIFICATION_TYPE":"U","NORAD_CAT_ID":64147,"ELEMENT_SET_NO":999,"REV_AT_EPOCH":4331,"BSTAR":-8.3852954e-5,"MEAN_MOTION_DOT":-1.271e-5,"MEAN_MOTION_DDOT":0},{"OBJECT_NAME":"CZ-4B DEB","OBJECT_ID":"2017-034F","EPOCH":"2026-03-09T21:40:50.869920","MEAN_MOTION":14.94203356,"ECCENTRICITY":0.01269894,"INCLINATION":42.9918,"RA_OF_ASC_NODE":268.1665,"ARG_OF_PERICENTER":296.9238,"MEAN_ANOMALY":61.8675,"EPHEMERIS_TYPE":0,"CLASSIFICATION_TYPE":"U","NORAD_CAT_ID":43430,"ELEMENT_SET_NO":999,"REV_AT_EPOCH":46152,"BSTAR":0.00088597773,"MEAN_MOTION_DOT":0.00011118,"MEAN_MOTION_DDOT":0}]
